{"fetched_at":"2026-07-23T07:06:01.086Z","source":"https://celestrak.org/NORAD/elements/gp.php?NAME=SENTINEL&FORMAT=JSON","constellation":"sentinel-5p","records":[{"OBJECT_NAME":"SENTINEL-5P","OBJECT_ID":"2017-064A","EPOCH":"2026-07-22T07:17:31.869312","CLASSIFICATION_TYPE":"U","MEAN_MOTION":14.1952413,"ECCENTRICITY":0.00011922,"INCLINATION":98.7929,"RA_OF_ASC_NODE":145.1869,"ARG_OF_PERICENTER":92.0923,"MEAN_ANOMALY":268.0389,"EPHEMERIS_TYPE":0,"NORAD_CAT_ID":42969,"ELEMENT_SET_NO":999,"REV_AT_EPOCH":45454,"BSTAR":0.000036598501,"MEAN_MOTION_DOT":3.3e-7,"MEAN_MOTION_DDOT":0}]}
